[{"OBJECT_NAME":"DUCHIFAT-1","OBJECT_ID":"2014-033M","EPOCH":"2026-03-09T16:47:47.078880","MEAN_MOTION":15.49813944,"ECCENTRICITY":0.00061121,"INCLINATION":98.0631,"RA_OF_ASC_NODE":115.1281,"ARG_OF_PERICENTER":85.0468,"MEAN_ANOMALY":275.1479,"EPHEMERIS_TYPE":0,"CLASSIFICATION_TYPE":"U","NORAD_CAT_ID":40021,"ELEMENT_SET_NO":999,"REV_AT_EPOCH":64027,"BSTAR":0.0010480156,"MEAN_MOTION_DOT":0.0005864,"MEAN_MOTION_DDOT":0},{"OBJECT_NAME":"STARLINK-1222","OBJECT_ID":"2020-012BC","EPOCH":"2026-03-09T22:38:25.073664","MEAN_MOTION":15.49506736,"ECCENTRICITY":0.00039794,"INCLINATION":53.0573,"RA_OF_ASC_NODE":341.5954,"ARG_OF_PERICENTER":86.864,"MEAN_ANOMALY":273.2823,"EPHEMERIS_TYPE":0,"CLASSIFICATION_TYPE":"U","NORAD_CAT_ID":45228,"ELEMENT_SET_NO":999,"REV_AT_EPOCH":33566,"BSTAR":0.00049812662,"MEAN_MOTION_DOT":0.00027553,"MEAN_MOTION_DDOT":0}]
